NORAD_CAT_ID,OBJECT_NAME,OBJECT_TYPE,EPOCH,MEAN_MOTION,ECCENTRICITY,INCLINATION,RA_OF_ASC_NODE,ARG_OF_PERICENTER,MEAN_ANOMALY,BSTAR,MEAN_MOTION_DOT,MEAN_MOTION_DDOT,TLE_LINE0,TLE_LINE1,TLE_LINE2,SEMIMAJOR_AXIS,PERIOD,APOGEE,PERIGEE,DECAYED
53172.0,STARLINK-4299,PAYLOAD,2023-09-14 18:02:48,15.08830957,0.0001498,53.2174,270.4368,95.883,264.2333,-1.0995e-05,-4.63e-06,0.0,0 STARLINK-4299,1 53172U 22083AS  23257.75194585 -.00000463  00000-0 -10995-4 0  9999,2 53172  53.2174 270.4368 0001498  95.8830 264.2333 15.08830957 64501,6917.908,95.438,540.809,538.737,0.0
53172.0,STARLINK-4299,PAYLOAD,2023-09-15 09:56:38,15.08847241,0.0002159,53.2169,267.4619,130.2472,229.8709,-2.9667e-05,-7.61e-06,0.0,0 STARLINK-4299,1 53172U 22083AS  23258.41433788 -.00000761  00000-0 -29667-4 0  9991,2 53172  53.2169 267.4619 0002159 130.2472 229.8709 15.08847241 65241,6917.858,95.437,541.217,538.23,0.0
53172.0,STARLINK-4299,PAYLOAD,2023-09-16 08:12:02,15.08851096,0.0001467,53.2157,263.2988,85.9854,274.1306,0.00043771,6.687e-05,0.0,0 STARLINK-4299,1 53172U 22083AS  23259.34169869  .00006687  00000-0  43771-3 0  9992,2 53172  53.2157 263.2988 0001467  85.9854 274.1306 15.08851096 64745,6917.846,95.437,540.726,538.697,0.0
53172.0,STARLINK-4299,PAYLOAD,2023-09-16 17:44:21,15.0884828,0.0001485,53.2156,261.5149,85.2791,274.8371,0.00029965,4.485e-05,0.0,0 STARLINK-4299,1 53172U 22083AS  23259.73913959  .00004485  00000-0  29965-3 0  9995,2 53172  53.2156 261.5149 0001485  85.2791 274.8371 15.08848280 65445,6917.855,95.437,540.747,538.693,0.0
53172.0,STARLINK-4299,PAYLOAD,2023-09-17 09:38:12,15.08848931,0.0001617,53.216,258.5404,91.7807,268.3371,0.00013207,1.815e-05,0.0,0 STARLINK-4299,1 53172U 22083AS  23260.40153719  .00001815  00000-0  13207-3 0  9997,2 53172  53.2160 258.5404 0001617  91.7807 268.3371 15.08848931 64908,6917.853,95.437,540.837,538.599,0.0
53172.0,STARLINK-4299,PAYLOAD,2023-09-17 17:35:08,15.08842381,0.0001509,53.2155,257.0544,91.2308,268.8857,1.1867e-05,-9.9e-07,0.0,0 STARLINK-4299,1 53172U 22083AS  23260.73273979 -.00000099  00000-0  11867-4 0  9999,2 53172  53.2155 257.0544 0001509  91.2308 268.8857 15.08842381 65595,6917.873,95.437,540.782,538.694,0.0
53172.0,STARLINK-4299,PAYLOAD,2023-09-18 06:18:13,15.08847633,0.0001479,53.217,254.6762,87.5372,272.5789,-3.6518e-05,-8.69e-06,0.0,0 STARLINK-4299,1 53172U 22083AS  23261.26265922 -.00000869  00000-0 -36518-4 0  9993,2 53172  53.2170 254.6762 0001479  87.5372 272.5789 15.08847633 65032,6917.857,95.437,540.745,538.699,0.0
53172.0,STARLINK-4299,PAYLOAD,2023-09-19 02:58:14,15.08845535,0.0001472,53.2171,250.8102,92.6533,267.4628,0.00013416,1.848e-05,0.0,0 STARLINK-4299,1 53172U 22083AS  23262.12377517  .00001848  00000-0  13416-3 0  9990,2 53172  53.2171 250.8102 0001472  92.6533 267.4628 15.08845535 65807,6917.863,95.437,540.747,538.71,0.0
53172.0,STARLINK-4299,PAYLOAD,2023-09-20 02:49:01,15.08835567,0.0001589,53.2172,246.3457,103.6545,256.4625,6.6122e-07,-2.77e-06,0.0,0 STARLINK-4299,1 53172U 22083AS  23263.11738052 -.00000277  00000-0  66122-6 0  9996,2 53172  53.2172 246.3457 0001589 103.6545 256.4625 15.08835567 65951,6917.894,95.438,540.858,538.66,0.0
53172.0,STARLINK-4299,PAYLOAD,2023-09-20 09:10:34,15.08840498,0.0001609,53.2175,245.1578,102.1063,258.011,8.6428e-05,1.088e-05,0.0,0 STARLINK-4299,1 53172U 22083AS  23263.38233890  .00001088  00000-0  86428-4 0  9994,2 53172  53.2175 245.1578 0001609 102.1063 258.0110 15.08840498 65357,6917.879,95.438,540.857,538.631,0.0
53172.0,STARLINK-4299,PAYLOAD,2023-09-20 21:53:39,15.08836929,0.0002183,53.2168,242.7782,87.9474,272.1769,-4.7389e-05,-1.042e-05,0.0,0 STARLINK-4299,1 53172U 22083AS  23263.91226371 -.00001042  00000-0 -47389-4 0  9994,2 53172  53.2168 242.7782 0002183  87.9474 272.1769 15.08836929 65433,6917.89,95.438,541.265,538.245,0.0
53172.0,STARLINK-4299,PAYLOAD,2023-09-21 07:25:58,15.08833415,0.000157,53.2175,240.9966,102.3142,257.8026,-6.2949e-05,-1.29e-05,0.0,0 STARLINK-4299,1 53172U 22083AS  23264.30970619 -.00001290  00000-0 -62949-4 0  9993,2 53172  53.2175 240.9966 0001570 102.3142 257.8026 15.08833415 66139,6917.901,95.438,540.852,538.679,0.0
53172.0,STARLINK-4299,PAYLOAD,2023-09-21 15:22:54,15.08836508,0.0001518,53.218,239.5106,95.5678,264.5487,-5.8905e-05,-1.225e-05,0.0,0 STARLINK-4299,1 53172U 22083AS  23264.64090609 -.00001225  00000-0 -58905-4 0  9997,2 53172  53.2180 239.5106 0001518  95.5678 264.5487 15.08836508 65540,6917.891,95.438,540.806,538.706,0.0
53172.0,STARLINK-4299,PAYLOAD,2023-09-22 07:16:45,15.08843958,0.0001335,53.2161,236.5363,95.0915,265.023,0.00028346,4.227e-05,0.0,0 STARLINK-4299,1 53172U 22083AS  23265.30330726  .00004227  00000-0  28346-3 0  9996,2 53172  53.2161 236.5363 0001335  95.0915 265.0230 15.08843958 66288,6917.868,95.437,540.657,538.81,0.0
53172.0,STARLINK-4299,PAYLOAD,2023-09-23 05:32:09,15.08854415,0.0001322,53.2157,232.3728,90.403,269.7114,0.00046796,7.17e-05,0.0,0 STARLINK-4299,1 53172U 22083AS  23266.23066504  .00007170  00000-0  46796-3 0  9998,2 53172  53.2157 232.3728 0001322  90.4030 269.7114 15.08854415 65781,6917.836,95.437,540.616,538.787,0.0
53172.0,STARLINK-4299,PAYLOAD,2023-09-23 15:04:28,15.08847646,0.0001321,53.2149,230.5891,93.8469,266.2674,0.00020342,2.952e-05,0.0,0 STARLINK-4299,1 53172U 22083AS  23266.62810480  .00002952  00000-0  20342-3 0  9993,2 53172  53.2149 230.5891 0001321  93.8469 266.2674 15.08847646 66484,6917.857,95.437,540.636,538.808,0.0
53172.0,STARLINK-4299,PAYLOAD,2023-09-24 02:12:10,15.08840891,0.0001324,53.2152,228.508,94.8582,265.2561,3.5218e-05,2.73e-06,0.0,0 STARLINK-4299,1 53172U 22083AS  23267.09178676  .00000273  00000-0  35218-4 0  9992,2 53172  53.2152 228.5080 0001324  94.8582 265.2561 15.08840891 66552,6917.878,95.437,540.659,538.827,0.0
53172.0,STARLINK-4299,PAYLOAD,2023-09-24 06:58:19,15.0884685,0.0001461,53.2157,227.6129,98.6055,261.5103,0.00013283,1.827e-05,0.0,0 STARLINK-4299,1 53172U 22083AS  23267.29050440  .00001827  00000-0  13283-3 0  9995,2 53172  53.2157 227.6129 0001461  98.6055 261.5103 15.08846850 65944,6917.859,95.437,540.735,538.714,0.0
53172.0,STARLINK-4299,PAYLOAD,2023-09-25 03:38:20,15.08845871,0.0001566,53.2166,223.7454,101.1016,259.0152,6.7482e-05,7.86e-06,0.0,0 STARLINK-4299,1 53172U 22083AS  23268.15162534  .00000786  00000-0  67482-4 0  9993,2 53172  53.2166 223.7454 0001566 101.1016 259.0152 15.08845871 66719,6917.862,95.437,540.811,538.644,0.0
53172.0,STARLINK-4299,PAYLOAD,2023-09-25 06:49:06,15.08853353,0.0001519,53.217,223.15,97.8559,262.2606,0.00018623,2.678e-05,0.0,0 STARLINK-4299,1 53172U 22083AS  23268.28410154  .00002678  00000-0  18623-3 0  9995,2 53172  53.2170 223.1500 0001519  97.8559 262.2606 15.08853353 66096,6917.84,95.437,540.755,538.654,0.0
53172.0,STARLINK-4299,PAYLOAD,2023-09-26 03:29:06,15.08861821,0.000157,53.2166,219.2849,105.9256,254.1909,0.00042367,6.465e-05,0.0,0 STARLINK-4299,1 53172U 22083AS  23269.14521562  .00006465  00000-0  42367-3 0  9997,2 53172  53.2166 219.2849 0001570 105.9256 254.1909 15.08861821 66225,6917.814,95.436,540.765,538.593,0.0
53172.0,STARLINK-4299,PAYLOAD,2023-09-27 01:44:30,15.0884226,0.0001464,53.2164,215.1216,112.9354,247.1793,1.0263e-05,-1.25e-06,0.0,0 STARLINK-4299,1 53172U 22083AS  23270.07258068 -.00000125  00000-0  10263-4 0  9998,2 53172  53.2164 215.1216 0001464 112.9354 247.1793 15.08842260 67001,6917.873,95.437,540.751,538.726,0.0
53172.0,STARLINK-4299,PAYLOAD,2023-09-27 06:30:40,15.08843796,0.0001255,53.2163,214.2312,100.1609,259.9525,8.5055e-05,1.066e-05,0.0,0 STARLINK-4299,1 53172U 22083AS  23270.27130075  .00001066  00000-0  85055-4 0  9992,2 53172  53.2163 214.2312 0001255 100.1609 259.9525 15.08843796 66397,6917.869,95.437,540.602,538.866,0.0
53172.0,STARLINK-4299,PAYLOAD,2023-09-27 12:52:13,15.0883451,0.000117,53.2162,213.0405,97.0236,263.0889,-5.4776e-05,-1.159e-05,0.0,0 STARLINK-4299,1 53172U 22083AS  23270.53626442 -.00001159  00000-0 -54776-4 0  9990,2 53172  53.2162 213.0405 0001170  97.0236 263.0889 15.08834510 67071,6917.897,95.438,540.572,538.953,0.0
53172.0,STARLINK-4299,PAYLOAD,2023-09-28 01:35:19,15.08821266,0.0001469,53.2177,210.6689,106.0638,254.0516,-0.00025425,-4.33e-05,0.0,0 STARLINK-4299,1 53172U 22083AS  23271.06619372 -.00004330  00000-0 -25425-3 0  9995,2 53172  53.2177 210.6689 0001469 106.0638 254.0516 15.08821266 67152,6917.938,95.439,540.819,538.786,0.0
53172.0,STARLINK-4299,PAYLOAD,2023-09-28 03:10:42,15.08821563,0.0001487,53.2179,210.3716,106.6825,253.4331,-0.00021627,-3.726e-05,0.0,0 STARLINK-4299,1 53172U 22083AS  23271.13243449 -.00003726  00000-0 -21627-3 0  9999,2 53172  53.2179 210.3716 0001487 106.6825 253.4331 15.08821563 66524,6917.937,95.439,540.83,538.773,0.0
53172.0,STARLINK-4299,PAYLOAD,2023-09-29 06:12:15,15.08851081,0.0001217,53.2177,205.313,95.4589,264.6542,0.00049019,7.524e-05,0.0,0 STARLINK-4299,1 53172U 22083AS  23272.25851327  .00007524  00000-0  49019-3 0  9996,2 53172  53.2177 205.3130 0001217  95.4589 264.6542 15.08851081 67335,6917.847,95.437,540.553,538.87,0.0
53172.0,STARLINK-4299,PAYLOAD,2023-09-30 02:52:16,15.08855639,0.0001592,53.2179,201.4477,79.828,280.2891,0.00041733,6.363e-05,0.0,0 STARLINK-4299,1 53172U 22083AS  23273.11962995  .00006363  00000-0  41733-3 0  9991,2 53172  53.2179 201.4477 0001592  79.8280 280.2891 15.08855639 67466,6917.833,95.437,540.799,538.596,0.0
53172.0,STARLINK-4299,PAYLOAD,2023-09-30 18:46:07,15.08843868,0.0002592,53.2166,198.4748,76.538,283.5901,8.4062e-05,1.05e-05,0.0,0 STARLINK-4299,1 53172U 22083AS  23273.78203392  .00001050  00000-0  84062-4 0  9994,2 53172  53.2166 198.4748 0002592  76.5380 283.5901 15.08843868 67564,6917.869,95.437,541.527,537.94,0.0
53172.0,STARLINK-4299,PAYLOAD,2023-10-01 12:15:22,15.08839237,0.0001494,53.2169,195.2033,84.5297,275.5866,0.00061041,9.44e-05,0.0,0 STARLINK-4299,1 53172U 22083AS  23274.51067566  .00009440  00000-0  61041-3 0  9999,2 53172  53.2169 195.2033 0001494  84.5297 275.5866 15.08839237 67033,6917.883,95.438,540.781,538.714,0.0
